*******************************************************************************
Revised: Sep 12, 1996           Earth Barycenter                              3
 
 Dynamical point:
 ---------------
 The common point about which the Earth and Moon revolve (center of mass). This
 is approximately 4671 km from the center of the Earth, or about 3/4 of the way 
 to the surface. See 399 for Earth center, or 301 for Moon center ephemeris.

*******************************************************************************
 
 
*******************************************************************************
Ephemeris / WWW_USER Mon Jun 24 14:25:41 2013 Pasadena, USA      / Horizons    
*******************************************************************************
Target body name: Earth-Moon Barycenter (3)       {source: DE405}
Center body name: Solar System Barycenter (0)     {source: DE405}
Center-site name: BODY CENTER
*******************************************************************************
Start time      : A.D. 2023-Feb-03 00:00:00.0000 CT 
Stop  time      : A.D. 2023-Feb-06 00:00:00.0000 CT 
Step-size       : 60 minutes
*******************************************************************************
Center geodetic : 0.00000000,0.00000000,0.0000000 {E-lon(deg),Lat(deg),Alt(km)}
Center cylindric: 0.00000000,0.00000000,0.0000000 {E-lon(deg),Dxy(km),Dz(km)}
Center radii    : (undefined)                                                  
Output units    : KM-S                                                         
Output format   : 05
Reference frame : ICRF/J2000.0                                                 
Output type     : GEOMETRIC cartesian states
Coordinate systm: Ecliptic and Mean Equinox of Reference Epoch                 
*******************************************************************************
JDCT 
   VX    VY    VZ
*******************************************************************************
$$SOE
2459978.500000000 = A.D. 2023-Feb-03 00:00:00.0000 (CT)
  -2.206945193705365E+01 -2.065479432388892E+01  1.259301359410127E-03
2459978.541666667 = A.D. 2023-Feb-03 01:00:00.0000 (CT)
  -2.205430056190967E+01 -2.067071711378028E+01  1.260031601319753E-03
2459978.583333333 = A.D. 2023-Feb-03 02:00:00.0000 (CT)
  -2.203913762895416E+01 -2.068662852545834E+01  1.260761198285176E-03
2459978.625000000 = A.D. 2023-Feb-03 03:00:00.0000 (CT)
  -2.202396314710476E+01 -2.070252855043170E+01  1.261490149860448E-03
2459978.666666667 = A.D. 2023-Feb-03 04:00:00.0000 (CT)
  -2.200877712528552E+01 -2.071841718021650E+01  1.262218455603179E-03
2459978.708333333 = A.D. 2023-Feb-03 05:00:00.0000 (CT)
  -2.199357957242685E+01 -2.073429440633641E+01  1.262946115065529E-03
2459978.750000000 = A.D. 2023-Feb-03 06:00:00.0000 (CT)
  -2.197837049746551E+01 -2.075016022032260E+01  1.263673127801588E-03
2459978.791666667 = A.D. 2023-Feb-03 07:00:00.0000 (CT)
  -2.196314990934462E+01 -2.076601461371378E+01  1.264399493367713E-03
2459978.833333333 = A.D. 2023-Feb-03 08:00:00.0000 (CT)
  -2.194791781701366E+01 -2.078185757805620E+01  1.265125211311112E-03
2459978.875000000 = A.D. 2023-Feb-03 09:00:00.0000 (CT)
  -2.193267422942843E+01 -2.079768910490365E+01  1.265850281192232E-03
2459978.916666667 = A.D. 2023-Feb-03 10:00:00.0000 (CT)
  -2.191741915555108E+01 -2.081350918581745E+01  1.266574702557920E-03
2459978.958333333 = A.D. 2023-Feb-03 11:00:00.0000 (CT)
  -2.190215260435008E+01 -2.082931781236648E+01  1.267298474962070E-03
2459979.000000000 = A.D. 2023-Feb-03 12:00:00.0000 (CT)
  -2.188687458480021E+01 -2.084511497612717E+01  1.268021597953888E-03
2459979.041666667 = A.D. 2023-Feb-03 13:00:00.0000 (CT)
  -2.187158510588257E+01 -2.086090066868351E+01  1.268744071085175E-03
2459979.083333333 = A.D. 2023-Feb-03 14:00:00.0000 (CT)
  -2.185628417658456E+01 -2.087667488162705E+01  1.269465893907824E-03
2459979.125000000 = A.D. 2023-Feb-03 15:00:00.0000 (CT)
  -2.184097180589987E+01 -2.089243760655691E+01  1.270187065968394E-03
2459979.166666667 = A.D. 2023-Feb-03 16:00:00.0000 (CT)
  -2.182564800282849E+01 -2.090818883507979E+01  1.270907586817996E-03
2459979.208333333 = A.D. 2023-Feb-03 17:00:00.0000 (CT)
  -2.181031277637668E+01 -2.092392855880997E+01  1.271627456007619E-03
2459979.250000000 = A.D. 2023-Feb-03 18:00:00.0000 (CT)
  -2.179496613555698E+01 -2.093965676936930E+01  1.272346673084659E-03
2459979.291666667 = A.D. 2023-Feb-03 19:00:00.0000 (CT)
  -2.177960808938820E+01 -2.095537345838722E+01  1.273065237597589E-03
2459979.333333333 = A.D. 2023-Feb-03 20:00:00.0000 (CT)
  -2.176423864689541E+01 -2.097107861750079E+01  1.273783149098350E-03
2459979.375000000 = A.D. 2023-Feb-03 21:00:00.0000 (CT)
  -2.174885781710992E+01 -2.098677223835463E+01  1.274500407127142E-03
2459979.416666667 = A.D. 2023-Feb-03 22:00:00.0000 (CT)
  -2.173346560906929E+01 -2.100245431260098E+01  1.275217011241000E-03
2459979.458333333 = A.D. 2023-Feb-03 23:00:00.0000 (CT)
  -2.171806203181731E+01 -2.101812483189970E+01  1.275932960978266E-03
2459979.500000000 = A.D. 2023-Feb-04 00:00:00.0000 (CT)
  -2.170264709440402E+01 -2.103378378791824E+01  1.276648255892704E-03
2459979.541666667 = A.D. 2023-Feb-04 01:00:00.0000 (CT)
  -2.168722080588567E+01 -2.104943117233169E+01  1.277362895529276E-03
2459979.583333333 = A.D. 2023-Feb-04 02:00:00.0000 (CT)
  -2.167178317532471E+01 -2.106506697682274E+01  1.278076879433483E-03
2459979.625000000 = A.D. 2023-Feb-04 03:00:00.0000 (CT)
  -2.165633421178982E+01 -2.108069119308172E+01  1.278790207154630E-03
2459979.666666667 = A.D. 2023-Feb-04 04:00:00.0000 (CT)
  -2.164087392435586E+01 -2.109630381280659E+01  1.279502878237453E-03
2459979.708333333 = A.D. 2023-Feb-04 05:00:00.0000 (CT)
  -2.162540232210391E+01 -2.111190482770295E+01  1.280214892226148E-03
2459979.750000000 = A.D. 2023-Feb-04 06:00:00.0000 (CT)
  -2.160991941412120E+01 -2.112749422948405E+01  1.280926248674148E-03
2459979.791666667 = A.D. 2023-Feb-04 07:00:00.0000 (CT)
  -2.159442520950117E+01 -2.114307200987076E+01  1.281636947118480E-03
2459979.833333333 = A.D. 2023-Feb-04 08:00:00.0000 (CT)
  -2.157891971734342E+01 -2.115863816059162E+01  1.282346987111059E-03
2459979.875000000 = A.D. 2023-Feb-04 09:00:00.0000 (CT)
  -2.156340294675369E+01 -2.117419267338282E+01  1.283056368193045E-03
2459979.916666667 = A.D. 2023-Feb-04 10:00:00.0000 (CT)
  -2.154787490684391E+01 -2.118973553998823E+01  1.283765089913540E-03
2459979.958333333 = A.D. 2023-Feb-04 11:00:00.0000 (CT)
  -2.153233560673213E+01 -2.120526675215936E+01  1.284473151820017E-03
2459980.000000000 = A.D. 2023-Feb-04 12:00:00.0000 (CT)
  -2.151678505554255E+01 -2.122078630165541E+01  1.285180553453002E-03
2459980.041666667 = A.D. 2023-Feb-04 13:00:00.0000 (CT)
  -2.150122326240552E+01 -2.123629418024323E+01  1.285887294362372E-03
2459980.083333333 = A.D. 2023-Feb-04 14:00:00.0000 (CT)
  -2.148565023645748E+01 -2.125179037969739E+01  1.286593374091606E-03
2459980.125000000 = A.D. 2023-Feb-04 15:00:00.0000 (CT)
  -2.147006598684102E+01 -2.126727489180011E+01  1.287298792189836E-03
2459980.166666667 = A.D. 2023-Feb-04 16:00:00.0000 (CT)
  -2.145447052270483E+01 -2.128274770834131E+01  1.288003548196971E-03
2459980.208333333 = A.D. 2023-Feb-04 17:00:00.0000 (CT)
  -2.143886385320371E+01 -2.129820882111861E+01  1.288707641664557E-03
2459980.250000000 = A.D. 2023-Feb-04 18:00:00.0000 (CT)
  -2.142324598749852E+01 -2.131365822193735E+01  1.289411072136764E-03
2459980.291666667 = A.D. 2023-Feb-04 19:00:00.0000 (CT)
  -2.140761693475625E+01 -2.132909590261051E+01  1.290113839157010E-03
2459980.333333333 = A.D. 2023-Feb-04 20:00:00.0000 (CT)
  -2.139197670414996E+01 -2.134452185495885E+01  1.290815942275468E-03
2459980.375000000 = A.D. 2023-Feb-04 21:00:00.0000 (CT)
  -2.137632530485878E+01 -2.135993607081080E+01  1.291517381037650E-03
2459980.416666667 = A.D. 2023-Feb-04 22:00:00.0000 (CT)
  -2.136066274606790E+01 -2.137533854200253E+01  1.292218154988540E-03
2459980.458333333 = A.D. 2023-Feb-04 23:00:00.0000 (CT)
  -2.134498903696857E+01 -2.139072926037793E+01  1.292918263673683E-03
2459980.500000000 = A.D. 2023-Feb-05 00:00:00.0000 (CT)
  -2.132930418675809E+01 -2.140610821778861E+01  1.293617706642116E-03
2459980.541666667 = A.D. 2023-Feb-05 01:00:00.0000 (CT)
  -2.131360820463982E+01 -2.142147540609391E+01  1.294316483443440E-03
2459980.583333333 = A.D. 2023-Feb-05 02:00:00.0000 (CT)
  -2.129790109982314E+01 -2.143683081716092E+01  1.295014593620316E-03
2459980.625000000 = A.D. 2023-Feb-05 03:00:00.0000 (CT)
  -2.128218288152344E+01 -2.145217444286447E+01  1.295712036723686E-03
2459980.666666667 = A.D. 2023-Feb-05 04:00:00.0000 (CT)
  -2.126645355896218E+01 -2.146750627508713E+01  1.296408812298319E-03
2459980.708333333 = A.D. 2023-Feb-05 05:00:00.0000 (CT)
  -2.125071314136679E+01 -2.148282630571923E+01  1.297104919898239E-03
2459980.750000000 = A.D. 2023-Feb-05 06:00:00.0000 (CT)
  -2.123496163797071E+01 -2.149813452665884E+01  1.297800359065000E-03
2459980.791666667 = A.D. 2023-Feb-05 07:00:00.0000 (CT)
  -2.121919905801341E+01 -2.151343092981181E+01  1.298495129355060E-03
2459980.833333333 = A.D. 2023-Feb-05 08:00:00.0000 (CT)
  -2.120342541074031E+01 -2.152871550709175E+01  1.299189230311541E-03
2459980.875000000 = A.D. 2023-Feb-05 09:00:00.0000 (CT)
  -2.118764070540284E+01 -2.154398825042004E+01  1.299882661487365E-03
2459980.916666667 = A.D. 2023-Feb-05 10:00:00.0000 (CT)
  -2.117184495125840E+01 -2.155924915172583E+01  1.300575422429616E-03
2459980.958333333 = A.D. 2023-Feb-05 11:00:00.0000 (CT)
  -2.115603815757036E+01 -2.157449820294606E+01  1.301267512693116E-03
2459981.000000000 = A.D. 2023-Feb-05 12:00:00.0000 (CT)
  -2.114022033360802E+01 -2.158973539602544E+01  1.301958931826413E-03
2459981.041666667 = A.D. 2023-Feb-05 13:00:00.0000 (CT)
  -2.112439148864669E+01 -2.160496072291648E+01  1.302649679381671E-03
